#dP2018  7 30  0  0  0.00000000      96 __u+U ITR00 FIT  IAC
## 2012  86400.00000000   900.00000000 58329 0.0000000000000
+   84   C02C03C04C05C06C07C08C09C10C11C12C13C14E01E02E03E04
+        E05E07E08E09E11E12E14E18E19E24E26E30G01G02G03G05G06
+        G07G08G09G10G11G12G13G14G15G16G17G18G19G20G21G22G23
+        G24G25G26G27G28G29G30G31G32J01R01R02R03R04R05R07R08
+        R09R10R11R13R14R15R16R17R18R19R20R21R22R23R24R26  0
++        12 12 12 12  8  9  8  8  8  8  8  8  8  6  6  6  6
++         6  6  7  6  6  6  7  7  6  6  6  7  3  3  3  3  3
++         3  3  3  3  3  3  3  4  3  3  3  3  3  3  3  3  3
++         3  3  5  3  3  3  3  3  4 10  5  5  5  5  6  5  5
++         5  5  5  6  5  5  5  5  5  5  5  5  5  5  6  8  0
%c M  cc GPS ccc cccc cccc cccc cccc ccccc ccccc ccccc ccccc
%c cc cc ccc ccc cccc cccc cccc cccc ccccc ccccc ccccc ccccc
%f  0.0000000  0.000000000  0.00000000000  0.000000000000000
%f  0.0000000  0.000000000  0.00000000000  0.000000000000000
%i    0    0    0    0      0      0      0      0         0
%i    0    0    0    0      0      0      0      0         0
/* INFORMATION & ANALYSIS CENTER (IAC) OF MCC   (RAPID DATA)
/* S/V CLOCKS ARE ALIGNED TO GPS & GLONASS TIME RESPECTIVELY
/* USING THE BROADCAST EPHEMERIS                            
/* PCV:IGS14_2000 OL/AL:FES2004  NONE     YN ORB:CoN CLK:CoN
*  2018 07 30  4  0  0.00000000
PC02   4462.806737  41927.321019    260.755806    -66.473209
PC03 -14758.706740  39493.638795   1012.234255    252.725117
PC04 -39616.973368  14410.637213    670.378218   -251.733463
PC05  21873.599577  36040.547328     42.907391    266.477131
PC06 -18580.724927  21716.371750 -30826.435919    128.345090
PC07 -20381.233339  36612.150484   -276.088115     45.895682
PC08  -5116.177979  29173.454386  30165.331139    461.069043
PC09  -3569.002717  24229.278770 -34142.548650     94.320909
PC10  -9159.312529  38703.827872  13511.497585   -425.781181
PC11  -9806.748943  12010.751784  23247.310323   -613.065889
PC12 -23468.768414  -3239.083024  14720.938816    536.870813
PC13   4398.857086  36361.748557  21112.637965   -201.705089
PC14 -20130.083779  17437.331144  -8356.770547    320.685681
PE01  16052.734785 -23354.452417   8573.615342   -401.617543
PE02 -16033.422744  23367.224702  -8540.320076     21.467203
PE03 -21166.778718  13627.117162 -15551.596480    -60.014262
PE04    563.526760 -17282.061703  24036.509441    -85.632357
PE05 -29461.533572   1969.210064   2085.054762    220.166272
PE07  20500.724601  10783.226239 -18419.059208    -10.975678
PE08   -403.796943  17132.321509 -24123.221917   6533.926254
PE09 -20532.739782 -10524.991243  18548.231204   6720.643969
PE11 -20078.683205 -21276.858945   4557.840432   3064.139071
PE12  -7048.238131 -24990.310317 -14230.164418   4713.282521
PE14  -1969.741995 -21867.503580 -24089.157391   6543.469290
PE18   4098.641893  16142.472631  16445.096331   6021.640858
PE19  22594.997973 -12804.724182  14208.575799    -13.663463
PE24 -10061.302064 -15262.331055 -23287.616373   6574.374779
PE26  21097.265211   5396.460022 -20054.566449   5652.447191
PE30  -4300.652692  27343.139937  10478.727175   5637.556519
PG01 -14468.914162   3527.996077  21828.854894    -70.943564
PG02  14604.854973  18262.797210 -12247.109540     43.300954
PG03 -21887.293674  11535.076355   9547.060915    113.492682
PG05  14617.312109   6930.061061 -21204.798164     -3.888766
PG06   6000.697348  25858.100167    368.956743    381.964290
PG07  -7518.923523  19147.993715 -16306.026766    150.472644
PG08 -25963.807801  -5133.387298   3110.820621   -109.884578
PG09 -14989.924616  10153.330590 -19464.056898    512.578008
PG10   6096.052951 -20680.187599  15445.240696    188.125230
PG11 -18467.720736   -171.206078  18470.014475   -727.599182
PG12  21686.291552  -6336.480692  13620.874657    317.603485
PG13  22986.035442  12796.392414  -3792.315392    -91.752366
PG14 -12968.824991 -17048.740489  16119.528266    -97.655422
PG15  26133.838767   1236.730748   5432.656891   -349.685974
PG16 -12675.410153  -8445.738328 -21963.907237     15.742603
PG17   3181.423376  16152.581850  21257.514776    -72.909572
PG18 -16328.028550  -6369.520679  19535.452075     39.636388
PG19  12585.531722  16691.542988  15995.500481   -416.179886
PG20  12799.671043 -22336.879626   6214.338737    513.271917
PG21   3252.828695 -22446.912794 -13049.838184   -360.228176
PG22 -20833.460070   4631.201864  16037.479384   -473.463456
PG23 -23512.277803   2590.918097 -12193.900643   -213.689367
PG24  16109.049188    599.797849  21026.650626    -53.272746
PG25  19667.398787 -17623.475103    947.644719   -623.796953
PG26  -4117.667346 -16315.871472 -20527.673903    -67.864077
PG27 -22263.381438 -12286.839603  -8205.505444    357.730527
PG28  -9915.932159  20279.970914  14653.924377    734.768942
PG29  16814.812768  -7442.339157 -19190.188243    405.565948
PG30  -1042.980721  25268.967113  -7806.667884     44.265994
PG31  -6553.123564 -25435.074468  -1803.279492    104.250938
PG32  -4046.254491 -16310.828127  20631.119560   -464.048286
PJ01 -33825.175175  24482.854858  -1031.995509   -161.068779
PR01  23975.231618  -8598.021480   1549.666266     29.785236
PR02  11289.280785 -12862.009897  18937.253530    322.161761
PR03  -7411.928964  -9047.797309  22716.140771    139.065298
PR04 -22001.181843    397.137882  12935.205041    270.413307
PR05 -23242.098350   9678.916638  -4070.421534    -48.169462
PR07   7792.866156   8858.152338 -22573.032971    -43.606437
PR08  21674.939333    -27.215173 -13390.206899     22.041734
PR09  -6445.737551  24610.485602  -1216.580192     20.639927
PR10   2112.284835  20540.796336  14896.197358     28.789254
PR11  10311.826447   4154.378258  22972.476872    -36.138415
PR13   6124.375818 -24726.371014   1460.004572    -13.032355
PR14  -2278.569571 -20728.855503 -14691.172600     29.535218
PR15  -8579.090588  -8545.498201 -22426.789677    -13.887832
PR16 -11763.547569  13795.820968 -18011.091860     98.095869
PR17 -14281.266455 -19089.553061  -9020.610118    151.915382
PR18 -19996.364740 -13708.662932   8030.917148    204.838357
PR19 -14534.274859   -957.425605  20932.868697    -57.244431
PR20    126.464689  13697.161251  21506.553204   -346.909886
PR21  14585.702943  19068.468459   8653.260522      4.665378
PR22  19812.404640  12386.768618 -10085.115977    -57.387535
PR23  11918.525098  -2749.941879 -22397.815005    168.829751
PR24  -1311.035874 -14368.986143 -21069.768991   -169.498692
PR26   -526.461668  13129.620130  21873.856192     37.702419
EOF
